DMSP 5D-3 F16 (USA 172) 
1 28054U 03048A   26086.87408564  .00000154  00000+0  10407-3 0  9992
2 28054  98.9970 110.1374 0007428  26.1395 323.9281 14.14468976157985
METEOSAT-9 (MSG-2)      
1 28912U 05049B   26086.55542547  .00000111  00000+0  00000+0 0  9990
2 28912   9.1790  54.9529 0000194 126.4362 249.1755  1.00272431  6180
DMSP 5D-3 F17 (USA 191) 
1 29522U 06050A   26086.85113120  .00000185  00000+0  11792-3 0  9990
2 29522  98.7410  95.0779 0008973 290.9985  69.0228 14.14971871   928
FENGYUN 3A              
1 32958U 08026A   26086.84976517  .00000093  00000+0  64817-4 0  9993
2 32958  98.6821  29.2333 0008917   9.7844 350.3504 14.19551735923861
GOES 14                 
1 35491U 09033A   26086.79754398  .00000056  00000+0  00000+0 0  9990
2 35491   1.4803  84.0358 0001710 275.1043 300.9108  1.00108162  5778
DMSP 5D-3 F18 (USA 210) 
1 35951U 09057A   26086.88710339  .00000285  00000+0  17041-3 0  9995
2 35951  98.8988  67.8588 0012007 118.9674 241.2704 14.14847448848097
EWS-G2 (GOES 15)        
1 36411U 10008A   26086.75739205  .00000004  00000+0  00000+0 0  9996
2 36411   1.0653  84.4828 0002593  19.7936  56.8718  1.00270141 58824
COMS 1                  
1 36744U 10032A   26086.82052514 -.00000360  00000+0  00000+0 0  9997
2 36744   4.5954  76.4926 0000892 279.5846 252.6871  1.00270768 50273
FENGYUN 3B              
1 37214U 10059A   26086.85720897  .00000253  00000+0  15430-3 0  9995
2 37214  98.9731 132.4918 0022963  58.8519 113.4938 14.14822547795921
SUOMI NPP               
1 37849U 11061A   26086.85811855  .00000094  00000+0  65510-4 0  9996
2 37849  98.7891  28.3183 0001608 161.5834 198.5400 14.19498220746906
METEOSAT-10 (MSG-3)     
1 38552U 12035B   26086.76036381 -.00000023  00000+0  00000+0 0  9994
2 38552   4.4799  61.3560 0002455 283.2044 114.4115  1.00271054 50044
METOP-B                 
1 38771U 12049A   26086.81700679  .00000110  00000+0  70011-4 0  9996
2 38771  98.6602 139.9054 0001979 192.6807 167.4321 14.21424093701708
INSAT-3D                
1 39216U 13038B   26086.85734422 -.00000357  00000+0  00000+0 0  9997
2 39216   1.7164  83.5628 0001613 243.9409 295.9712  1.00269358 46263
FENGYUN 3C              
1 39260U 13052A   26086.90991787  .00000121  00000+0  82812-4 0  9991
2 39260  98.4922  64.5469 0013504 256.6392 103.3278 14.15734523647068
METEOR-M 2              
1 40069U 14037A   26086.91476363  .00000195  00000+0  10862-3 0  9999
2 40069  98.5056  65.5615 0004580 275.4861  84.5794 14.21436283607770
HIMAWARI-8              
1 40267U 14060A   26086.78827060 -.00000295  00000+0  00000+0 0  9995
2 40267   0.0180 118.5424 0000811 213.5087 277.6002  1.00270724 41946
FENGYUN 2G              
1 40367U 14090A   26086.85145088 -.00000315  00000+0  00000+0 0  9993
2 40367   5.4336  73.7832 0001807 148.2756   9.2188  1.00263931 41189
