[{"OBJECT_NAME":"DMSP 5D-3 F16 (USA 172)","OBJECT_ID":"2003-048A","EPOCH":"2026-03-27T20:58:40.999296","MEAN_MOTION":14.14468976,"ECCENTRICITY":0.0007428,"INCLINATION":98.997,"RA_OF_ASC_NODE":110.1374,"ARG_OF_PERICENTER":26.1395,"MEAN_ANOMALY":323.9281,"EPHEMERIS_TYPE":0,"CLASSIFICATION_TYPE":"U","NORAD_CAT_ID":28054,"ELEMENT_SET_NO":999,"REV_AT_EPOCH":15798,"BSTAR":0.00010407,"MEAN_MOTION_DOT":1.54e-6,"MEAN_MOTION_DDOT":0},{"OBJECT_NAME":"METEOSAT-9 (MSG-2)","OBJECT_ID":"2005-049B","EPOCH":"2026-03-27T13:19:48.760608","MEAN_MOTION":1.00272431,"ECCENTRICITY":1.94e-5,"INCLINATION":9.179,"RA_OF_ASC_NODE":54.9529,"ARG_OF_PERICENTER":126.4362,"MEAN_ANOMALY":249.1755,"EPHEMERIS_TYPE":0,"CLASSIFICATION_TYPE":"U","NORAD_CAT_ID":28912,"ELEMENT_SET_NO":999,"REV_AT_EPOCH":618,"BSTAR":0,"MEAN_MOTION_DOT":1.11e-6,"MEAN_MOTION_DDOT":0},{"OBJECT_NAME":"DMSP 5D-3 F17 (USA 191)","OBJECT_ID":"2006-050A","EPOCH":"2026-03-27T20:25:37.735680","MEAN_MOTION":14.14971871,"ECCENTRICITY":0.0008973,"INCLINATION":98.741,"RA_OF_ASC_NODE":95.0779,"ARG_OF_PERICENTER":290.9985,"MEAN_ANOMALY":69.0228,"EPHEMERIS_TYPE":0,"CLASSIFICATION_TYPE":"U","NORAD_CAT_ID":29522,"ELEMENT_SET_NO":999,"REV_AT_EPOCH":92,"BSTAR":0.00011792,"MEAN_MOTION_DOT":1.85e-6,"MEAN_MOTION_DDOT":0},{"OBJECT_NAME":"FENGYUN 3A","OBJECT_ID":"2008-026A","EPOCH":"2026-03-27T20:23:39.710688","MEAN_MOTION":14.19551735,"ECCENTRICITY":0.0008917,"INCLINATION":98.6821,"RA_OF_ASC_NODE":29.2333,"ARG_OF_PERICENTER":9.7844,"MEAN_ANOMALY":350.3504,"EPHEMERIS_TYPE":0,"CLASSIFICATION_TYPE":"U","NORAD_CAT_ID":32958,"ELEMENT_SET_NO":999,"REV_AT_EPOCH":92386,"BSTAR":6.4817e-5,"MEAN_MOTION_DOT":9.3e-7,"MEAN_MOTION_DDOT":0},{"OBJECT_NAME":"GOES 14","OBJECT_ID":"2009-033A","EPOCH":"2026-03-27T19:08:27.799872","MEAN_MOTION":1.00108162,"ECCENTRICITY":0.000171,"INCLINATION":1.4803,"RA_OF_ASC_NODE":84.0358,"ARG_OF_PERICENTER":275.1043,"MEAN_ANOMALY":300.9108,"EPHEMERIS_TYPE":0,"CLASSIFICATION_TYPE":"U","NORAD_CAT_ID":35491,"ELEMENT_SET_NO":999,"REV_AT_EPOCH":577,"BSTAR":0,"MEAN_MOTION_DOT":5.6e-7,"MEAN_MOTION_DDOT":0},{"OBJECT_NAME":"DMSP 5D-3 F18 (USA 210)","OBJECT_ID":"2009-057A","EPOCH":"2026-03-27T21:17:25.732896","MEAN_MOTION":14.14847448,"ECCENTRICITY":0.0012007,"INCLINATION":98.8988,"RA_OF_ASC_NODE":67.8588,"ARG_OF_PERICENTER":118.9674,"MEAN_ANOMALY":241.2704,"EPHEMERIS_TYPE":0,"CLASSIFICATION_TYPE":"U","NORAD_CAT_ID":35951,"ELEMENT_SET_NO":999,"REV_AT_EPOCH":84809,"BSTAR":0.00017041,"MEAN_MOTION_DOT":2.85e-6,"MEAN_MOTION_DDOT":0},{"OBJECT_NAME":"EWS-G2 (GOES 15)","OBJECT_ID":"2010-008A","EPOCH":"2026-03-27T18:10:38.673120","MEAN_MOTION":1.00270141,"ECCENTRICITY":0.0002593,"INCLINATION":1.0653,"RA_OF_ASC_NODE":84.4828,"ARG_OF_PERICENTER":19.7936,"MEAN_ANOMALY":56.8718,"EPHEMERIS_TYPE":0,"CLASSIFICATION_TYPE":"U","NORAD_CAT_ID":36411,"ELEMENT_SET_NO":999,"REV_AT_EPOCH":5882,"BSTAR":0,"MEAN_MOTION_DOT":4.0e-8,"MEAN_MOTION_DDOT":0},{"OBJECT_NAME":"COMS 1","OBJECT_ID":"2010-032A","EPOCH":"2026-03-27T19:41:33.372096","MEAN_MOTION":1.00270768,"ECCENTRICITY":8.92e-5,"INCLINATION":4.5954,"RA_OF_ASC_NODE":76.4926,"ARG_OF_PERICENTER":279.5846,"MEAN_ANOMALY":252.6871,"EPHEMERIS_TYPE":0,"CLASSIFICATION_TYPE":"U","NORAD_CAT_ID":36744,"ELEMENT_SET_NO":999,"REV_AT_EPOCH":5027,"BSTAR":0,"MEAN_MOTION_DOT":-3.6e-6,"MEAN_MOTION_DDOT":0},{"OBJECT_NAME":"FENGYUN 3B","OBJECT_ID":"2010-059A","EPOCH":"2026-03-27T20:34:22.855008","MEAN_MOTION":14.14822547,"ECCENTRICITY":0.0022963,"INCLINATION":98.9731,"RA_OF_ASC_NODE":132.4918,"ARG_OF_PERICENTER":58.8519,"MEAN_ANOMALY":113.4938,"EPHEMERIS_TYPE":0,"CLASSIFICATION_TYPE":"U","NORAD_CAT_ID":37214,"ELEMENT_SET_NO":999,"REV_AT_EPOCH":79592,"BSTAR":0.0001543,"MEAN_MOTION_DOT":2.53e-6,"MEAN_MOTION_DDOT":0},{"OBJECT_NAME":"SUOMI NPP","OBJECT_ID":"2011-061A","EPOCH":"2026-03-27T20:35:41.442720","MEAN_MOTION":14.1949822,"ECCENTRICITY":0.0001608,"INCLINATION":98.7891,"RA_OF_ASC_NODE":28.3183,"ARG_OF_PERICENTER":161.5834,"MEAN_ANOMALY":198.54,"EPHEMERIS_TYPE":0,"CLASSIFICATION_TYPE":"U","NORAD_CAT_ID":37849,"ELEMENT_SET_NO":999,"REV_AT_EPOCH":74690,"BSTAR":6.551e-5,"MEAN_MOTION_DOT":9.4e-7,"MEAN_MOTION_DDOT":0},{"OBJECT_NAME":"METEOSAT-10 (MSG-3)","OBJECT_ID":"2012-035B","EPOCH":"2026-03-27T18:14:55.433184","MEAN_MOTION":1.00271054,"ECCENTRICITY":0.0002455,"INCLINATION":4.4799,"RA_OF_ASC_NODE":61.356,"ARG_OF_PERICENTER":283.2044,"MEAN_ANOMALY":114.4115,"EPHEMERIS_TYPE":0,"CLASSIFICATION_TYPE":"U","NORAD_CAT_ID":38552,"ELEMENT_SET_NO":999,"REV_AT_EPOCH":5004,"BSTAR":0,"MEAN_MOTION_DOT":-2.3e-7,"MEAN_MOTION_DDOT":0},{"OBJECT_NAME":"METOP-B","OBJECT_ID":"2012-049A","EPOCH":"2026-03-27T19:36:29.386656","MEAN_MOTION":14.21424093,"ECCENTRICITY":0.0001979,"INCLINATION":98.6602,"RA_OF_ASC_NODE":139.9054,"ARG_OF_PERICENTER":192.6807,"MEAN_ANOMALY":167.4321,"EPHEMERIS_TYPE":0,"CLASSIFICATION_TYPE":"U","NORAD_CAT_ID":38771,"ELEMENT_SET_NO":999,"REV_AT_EPOCH":70170,"BSTAR":7.0011e-5,"MEAN_MOTION_DOT":1.1e-6,"MEAN_MOTION_DDOT":0},{"OBJECT_NAME":"INSAT-3D","OBJECT_ID":"2013-038B","EPOCH":"2026-03-27T20:34:34.540608","MEAN_MOTION":1.00269358,"ECCENTRICITY":0.0001613,"INCLINATION":1.7164,"RA_OF_ASC_NODE":83.5628,"ARG_OF_PERICENTER":243.9409,"MEAN_ANOMALY":295.9712,"EPHEMERIS_TYPE":0,"CLASSIFICATION_TYPE":"U","NORAD_CAT_ID":39216,"ELEMENT_SET_NO":999,"REV_AT_EPOCH":4626,"BSTAR":0,"MEAN_MOTION_DOT":-3.57e-6,"MEAN_MOTION_DDOT":0},{"OBJECT_NAME":"FENGYUN 3C","OBJECT_ID":"2013-052A","EPOCH":"2026-03-27T21:50:16.903968","MEAN_MOTION":14.15734523,"ECCENTRICITY":0.0013504,"INCLINATION":98.4922,"RA_OF_ASC_NODE":64.5469,"ARG_OF_PERICENTER":256.6392,"MEAN_ANOMALY":103.3278,"EPHEMERIS_TYPE":0,"CLASSIFICATION_TYPE":"U","NORAD_CAT_ID":39260,"ELEMENT_SET_NO":999,"REV_AT_EPOCH":64706,"BSTAR":8.2812e-5,"MEAN_MOTION_DOT":1.21e-6,"MEAN_MOTION_DDOT":0},{"OBJECT_NAME":"METEOR-M 2","OBJECT_ID":"2014-037A","EPOCH":"2026-03-27T21:57:15.577632","MEAN_MOTION":14.21436283,"ECCENTRICITY":0.000458,"INCLINATION":98.5056,"RA_OF_ASC_NODE":65.5615,"ARG_OF_PERICENTER":275.4861,"MEAN_ANOMALY":84.5794,"EPHEMERIS_TYPE":0,"CLASSIFICATION_TYPE":"U","NORAD_CAT_ID":40069,"ELEMENT_SET_NO":999,"REV_AT_EPOCH":60777,"BSTAR":0.00010862,"MEAN_MOTION_DOT":1.95e-6,"MEAN_MOTION_DDOT":0},{"OBJECT_NAME":"HIMAWARI-8","OBJECT_ID":"2014-060A","EPOCH":"2026-03-27T18:55:06.579840","MEAN_MOTION":1.00270724,"ECCENTRICITY":8.11e-5,"INCLINATION":0.018,"RA_OF_ASC_NODE":118.5424,"ARG_OF_PERICENTER":213.5087,"MEAN_ANOMALY":277.6002,"EPHEMERIS_TYPE":0,"CLASSIFICATION_TYPE":"U","NORAD_CAT_ID":40267,"ELEMENT_SET_NO":999,"REV_AT_EPOCH":4194,"BSTAR":0,"MEAN_MOTION_DOT":-2.95e-6,"MEAN_MOTION_DDOT":0},{"OBJECT_NAME":"FENGYUN 2G","OBJECT_ID":"2014-090A","EPOCH":"2026-03-27T20:26:05.356032","MEAN_MOTION":1.00263931,"ECCENTRICITY":0.0001807,"INCLINATION":5.4336,"RA_OF_ASC_NODE":73.7832,"ARG_OF_PERICENTER":148.2756,"MEAN_ANOMALY":9.2188,"EPHEMERIS_TYPE":0,"CLASSIFICATION_TYPE":"U","NORAD_CAT_ID":40367,"ELEMENT_SET_NO":999,"REV_AT_EPOCH":4118,"BSTAR":0,"MEAN_MOTION_DOT":-3.15e-6,"MEAN_MOTION_DDOT":0}]
